id_pagina,codiceIstituto,titolo,nome,tipo,latitude,longitude,indirizzo,telefono,url,data_aggiornamento,localita
MII152284,AA02,Genova Marassi,,Casa circondariale,44.4179134,8.9511004,Piazzale Marassi n.2 - 16139 Genova,+39 010 84051,https://www.giustizia.it/giustizia/it/dettaglio_scheda.page?s=MII152284,2024-09-12,Genova
MII157783,AA26,Alba,Giuseppe Montalto,Casa di reclusione,44.691542,8.025636,Loc.Toppino - Via Vivaro n. 14 - 12051 Alba,+39 0173 362228,https://www.giustizia.it/giustizia/it/dettaglio_scheda.page?s=MII157783,2024-09-12,Alba
MII158895,BB01,Milano San Vittore,Francesco Di Cataldo,Casa circondariale,45.4615979,9.16639949,Piazza Filangieri n.2 - 20123 Milano,+39 02 438521,https://www.giustizia.it/giustizia/it/dettaglio_scheda.page?s=MII158895,2024-09-12,Milano
MII158901,CC05,Belluno,,Casa circondariale,46.1397378,12.2192968,Via Baldenich n.11 - 32100 Belluno,+39 0437 930810,https://www.giustizia.it/giustizia/it/dettaglio_scheda.page?s=MII158901,2024-09-12,Belluno
MII158910,KK19,Agrigento,Pasquale Di Lorenzo,Casa circondariale,37.31942185,13.61739575,Piazza Di Lorenzo n. 1 - 92100 Agrigento,+39 0922 621111,https://www.giustizia.it/giustizia/it/dettaglio_scheda.page?s=MII158910,2024-09-12,Agrigento
MII158919,AA48,"Alessandria Cantiello, Gaeta",,Casa circondariale,44.9129225,8.615321,Piazza Don Soria n. 13 - 15121 Alessandria,+39 0131 236271,https://www.giustizia.it/giustizia/it/dettaglio_scheda.page?s=MII158919,2024-09-12,Alessandria
MII158924,AA04,Alessandria San Michele,,Casa di reclusione,44.9129225,8.615321,Strada Statale per Casale n.50/A - 15121 Alessandria,+39 0131 361781,https://www.giustizia.it/giustizia/it/dettaglio_scheda.page?s=MII158924,2024-09-12,
MII158935,LL02,Alghero,Giuseppe Tomasiello,Casa di reclusione,40.5600205,8.3151473,Via Vittorio Emanuele n.28 - 07041 Alghero,+39 079 93699,https://www.giustizia.it/giustizia/it/dettaglio_scheda.page?s=MII158935,2024-09-12,Alghero
MII158941,EE04,Ancona Montacuto,,Casa circondariale,43.619340,13.527880,Via Montecavallo di Montacuto n.73/a - 60129 Ancona,+39 071 897892,https://www.giustizia.it/giustizia/it/dettaglio_scheda.page?s=MII158941,2024-09-12,Ancona
MII158944,EE47,Ancona Barcaglione,,Casa di reclusione,43.613360,13.440180,Via Colle Ameno n.25 - 60126 Ancona,+39 071 2181980,https://www.giustizia.it/giustizia/it/dettaglio_scheda.page?s=MII158944,2024-09-12,Ancona
MII158945,LL04,Arbus,localit&agraveIs Arenas,Casa di reclusione,39.4987508,8.47964289,Localit&agraveBau - 09031 Arbus,+39 070 9759066,https://www.giustizia.it/giustizia/it/dettaglio_scheda.page?s=MII158945,2024-09-12,Arbus
MII158948,DD05,Arezzo,,Casa circondariale,43.4628957,11.8781675,Via Garibaldi n.259 - 52100 Arezzo,+39 0575 291711,https://www.giustizia.it/giustizia/it/dettaglio_scheda.page?s=MII158948,2024-09-12,Arezzo
MII159053,FF30,Ariano Irpino,Pasquale Campanello,Casa circondariale,41.1280699,15.08169876,Via Grignano n. 60 - 83031 Ariano Irpino,+39 0825 891261,https://www.giustizia.it/giustizia/it/dettaglio_scheda.page?s=MII159053,2024-09-12,Ariano irpino
MII159060,FF18,Arienzo,,Casa di reclusione,41.0242566,14.4970522,Via Nazionale Appia Km 230+600 n.7 - 81021 Arienzo,+39 0823 805516,https://www.giustizia.it/giustizia/it/dettaglio_scheda.page?s=MII159060,2024-09-12,Arienzo
MII159065,EE27,Ascoli Piceno,,Casa circondariale,42.8546185,13.5755038,Via dei meli n.218 - 63100 Ascoli Piceno,+39 0736 402141,https://www.giustizia.it/giustizia/it/dettaglio_scheda.page?s=MII159065,2024-09-12,Ascoli piceno
MII159069,AA10,Asti,,Casa di reclusione,44.900542,8.2068876,Frazione Quarto Inferiore n. 266 14100 Asti,+39 0141 293731,https://www.giustizia.it/giustizia/it/dettaglio_scheda.page?s=MII159069,2024-09-12,Asti
MII159314,KK05,Augusta,,Casa di reclusione,37.2369363,15.2196575,Contrada Piano Ippolito n.1 - 96011 Augusta,+39 0931 981349,https://www.giustizia.it/giustizia/it/dettaglio_scheda.page?s=MII159314,2024-09-12,Augusta
MII160204,FF08,Benevento,,Casa circondariale,41.1295587,14.7824639,Via Ermete Novelli n.11 - 82100 Benevento,+39 0824 53451,https://www.giustizia.it/giustizia/it/dettaglio_scheda.page?s=MII160204,2024-09-12,Benevento
MII169535,EE48,Rieti,Nuovo Complesso,Casa circondariale,42.4016906,12.8629993,Via Maestri del lavoro n.2 - 02100 Rieti,+39 0746 221343,https://www.giustizia.it/giustizia/it/dettaglio_scheda.page?s=MII169535,2024-09-12,Rieti
MII172011,FF32,Avellino,Antimo Graziano Bellizzi,Casa circondariale,40.9141958,14.7888764,Frazione Bellizzi Irpino - Contrada Sant'Oronzo n.1 - 83100 Avellino,+39 0825 73014,https://www.giustizia.it/giustizia/it/dettaglio_scheda.page?s=MII172011,2024-09-12,Avellino
MII172187,FF03,Aversa,Filippo Saporito,Casa di reclusione,40.973212,14.204928,Via San Francesco da Paola n.2 - 81031 Aversa,+39 081 8155111,https://www.giustizia.it/giustizia/it/dettaglio_scheda.page?s=MII172187,2024-09-12,Aversa
MII172208,EE32,Civitavecchia Nuovo Complesso,,Casa circondariale,42.0937524,11.7922462,"Via Aurelia nord km 79,500 n. snc - 00053 Civitavecchia",+39 0766 596601,https://www.giustizia.it/giustizia/it/dettaglio_scheda.page?s=MII172208,2024-09-12,Civitavecchia
MII172222,HH08,Barcellona Pozzo di Gotto,Vittorio Madia,Casa circondariale,38.15123,15.2278876,Via V. Madia n.31 - 98051 Barcellona Pozzo di Gotto,+39 090 970931,https://www.giustizia.it/giustizia/it/dettaglio_scheda.page?s=MII172222,2024-09-12,Barcellona pozzo di gotto
MII172277,FM04,Altamura,,Casa di reclusione,40.8283631,16.5523505,Via dell'Uva Spina n.18 - 70022 Altamura,+39 080 3101243,https://www.giustizia.it/giustizia/it/dettaglio_scheda.page?s=MII172277,2024-09-12,
MII172320,BB16,Busto Arsizio,,Casa circondariale,45.6119057,8.8520522,Via per Cassano Magnago n.102 - 21052 Busto Arsizio,+39 0331 685777,https://www.giustizia.it/giustizia/it/dettaglio_scheda.page?s=MII172320,2024-09-12,Busto arsizio
MII172332,AA12,Biella,,Casa circondariale,45.5664109,8.0542758,Viale dei Tigli n.14 - 13900 Biella,+39 015 8492832,https://www.giustizia.it/giustizia/it/dettaglio_scheda.page?s=MII172332,2024-09-12,Biella
MII172344,BB50,Bollate,II&ordfcasa,Casa di reclusione,45.543835,9.1177075,Via Cristina Belgioioso n.120 20157 - Milano,+39 02 382067000,https://www.giustizia.it/giustizia/it/dettaglio_scheda.page?s=MII172344,2024-09-12,Milano
MII172508,BB03,Bologna,Rocco D'Amato,Casa circondariale,44.4936714,11.3430347,Via del Gomito n. 2 - 40127 Bologna,+39 051 320512,https://www.giustizia.it/giustizia/it/dettaglio_scheda.page?s=MII172508,2024-09-12,Bologna
MII172580,CC03,Bolzano,,Casa circondariale,46.49177448,11.34681702,Via Dante n. 28/a - 39100 Bolzano,+39 0471 976712,https://www.giustizia.it/giustizia/it/dettaglio_scheda.page?s=MII172580,2024-09-12,Bolzano
MII172592,BB02,Brescia Canton Monbello,Nerio Fischione,Casa circondariale,45.5325399,10.2340676,Via Spalto San Marco n 20 - 25121 Brescia,+39 030 3773523,https://www.giustizia.it/giustizia/it/dettaglio_scheda.page?s=MII172592,2024-09-12,Brescia
MII172610,BB43,Brescia Verziano,,Casa di reclusione,45.4996058,10.18776766,Via Flero n.157 - 25124 Brescia,+39 030 3580386,https://www.giustizia.it/giustizia/it/dettaglio_scheda.page?s=MII172610,2024-09-12,Brescia
MII172623,FF06,Brindisi,,Casa circondariale,40.6395295,17.945526,Via Appia n.131 - 72100 Brindisi,+39 0831 512001,https://www.giustizia.it/giustizia/it/dettaglio_scheda.page?s=MII172623,2024-09-12,Brindisi
MII172814,AA11,Brissogne - Aosta,,Casa circondariale,45.7285199,7.4066634,"Loc. Les Iles, 14 n.14 - 761900 Brissogne",+39 0165 761900,https://www.giustizia.it/giustizia/it/dettaglio_scheda.page?s=MII172814,2024-09-12,Brissogne
MII172827,BB06,Bergamo,,Casa circondariale,45.7566557,9.7542192,via Monte Gleno n.61 - 24125 Bergamo,+39 035 294423,https://www.giustizia.it/giustizia/it/dettaglio_scheda.page?s=MII172827,2024-09-12,Bergamo
MII172835,LL01,Cagliari Uta,Ettore Scalas,Casa circondariale,39.1694193,8.93944903,Zona industriale Macchiareddu 2&degstrada ovest Uta n.0 - 09010 Cagliari,+39 070 24931,https://www.giustizia.it/giustizia/it/dettaglio_scheda.page?s=MII172835,2024-09-12,Cagliari
MII173006,KK14,Caltagirone,,Casa circondariale,37.2372009,14.5132023,Contrada Noce San Nicola le Canne s.n.c. n. 00 - 95041 Caltagirone,+39 0933 368111,https://www.giustizia.it/giustizia/it/dettaglio_scheda.page?s=MII173006,2024-09-12,Caltagirone
MII173063,KK09,Caltanissetta,,Casa circondariale,37.494382965222556,14.05615604195194,Via Messina n. 94 - 93100 Caltanissetta,+39 0934 584500,https://www.giustizia.it/giustizia/it/dettaglio_scheda.page?s=MII173063,2024-09-12,Caltanissetta
MII173088,FF12,Campobasso,,Casa circondariale,41.555686,14.66172195,Via Cavour n. 52 - 86100 Campobasso,+39 0874 411053,https://www.giustizia.it/giustizia/it/dettaglio_scheda.page?s=MII173088,2024-09-12,Campobasso
MII173101,FF29,Carinola,Gian Battista Novelli,Casa di reclusione,41.186987,13.9812129,Via provinciale San Biagio n.6 - 81030 CARINOLA,+39 0823 939311,https://www.giustizia.it/giustizia/it/dettaglio_scheda.page?s=MII173101,2024-09-12,Carinola
MII173114,EE06,Cassino,,Casa circondariale,41.4925576,13.8305297,Via Sferracavalli n 3 - 03043 Cassino,+39 0776 21019,https://www.giustizia.it/giustizia/it/dettaglio_scheda.page?s=MII173114,2024-09-12,Cassino
MII173237,BB07,Castelfranco Emilia,,Casa di reclusione,44.5950245,11.0529006,Via Forte Urbano n.1 - 41013 Castelfranco Emilia,+39 059 926404,https://www.giustizia.it/giustizia/it/dettaglio_scheda.page?s=MII173237,2024-09-12,Castelfranco emilia
MII173259,KK29,Castelvetrano,,Casa circondariale,37.6828513,12.7955336,Contrada Strasatto n. snc - 91022 Castelvetrano,+39 0924 906510,https://www.giustizia.it/giustizia/it/dettaglio_scheda.page?s=MII173259,2024-09-12,Castelvetrano
MII173265,HH12,Castrovillari,Rosa Sisca,Casa circondariale,39.83602485,16.2210616,Via Sergio Cosmai n 1 - 87012 Castrovillari,+39 0981 483127,https://www.giustizia.it/giustizia/it/dettaglio_scheda.page?s=MII173265,2024-09-12,Castrovillari
MII173285,KK24,Catania Bicocca,,Casa circondariale,37.50570535,14.94420233,Tangenziale Ovest km 8 n. s.n.c. - 95030 Catania,+39 095 592728,https://www.giustizia.it/giustizia/it/dettaglio_scheda.page?s=MII173285,2024-09-12,Catania
MII173301,KK02,Catania Piazza Lanza,,Casa circondariale,37.50570535,14.94420233,Piazza Vincenzo Lanza n.11 - 95100 Catania,+39 095 437933,https://www.giustizia.it/giustizia/it/dettaglio_scheda.page?s=MII173301,2024-09-12,Catania
MII173311,HH11,Catanzaro,Ugo Caridi,Casa circondariale,38.9076353,16.5960465,Via Tre Fontane n.28 - 88100 Catanzaro,+39 0961 469593,https://www.giustizia.it/giustizia/it/dettaglio_scheda.page?s=MII173311,2024-09-12,Catanzaro
MII173324,HH39,Crotone,,Casa circondariale,39.0806223,17.127196,Localit&agravePassovecchio n.1 - 88900 Crotone,+39 0962 930013,https://www.giustizia.it/giustizia/it/dettaglio_scheda.page?s=MII173324,2024-09-12,Crotone
MII173341,HH04,Cosenza,Sergio Cosmai,Casa circondariale,39.3099931,16.2501929,Viale Giacomo Mancini n.320 - 87100 Cosenza,+39 0984 826001,https://www.giustizia.it/giustizia/it/dettaglio_scheda.page?s=MII173341,2024-09-12,Cosenza
MII173356,AA21,Chiavari,,Casa di reclusione,44.3164494,9.3233382,Via al Gasometro n.2 - 16043 Chiavari,+39 0185 324691,https://www.giustizia.it/giustizia/it/dettaglio_scheda.page?s=MII173356,2024-09-12,Chiavari
MII173364,EE17,Chieti,,Casa circondariale,42.3446529,14.1659738,Via Ettore Ianni n.30 - 66100 Chieti,+39 0871 344034,https://www.giustizia.it/giustizia/it/dettaglio_scheda.page?s=MII173364,2024-09-12,Chieti
MII173688,EE03,Civitavecchia Giuseppe Passerini,,Casa di reclusione,42.0989856,11.78675481,Via Tarquinia n. 20 - 00053 Civitavecchia,+39 0766 50821,https://www.giustizia.it/giustizia/it/dettaglio_scheda.page?s=MII173688,2024-09-12,Civitavecchia
MII173712,BB17,Como,,Casa circondariale,45.9394759,9.14941015,Via Bassone n.11 - 22100 Como,+39 031 590848,https://www.giustizia.it/giustizia/it/dettaglio_scheda.page?s=MII173712,2024-09-12,Como
MII173747,BB18,Cremona,,Casa circondariale,45.1334796,10.0248716,Via Palosca n.2 - 26100 Cremona,+39 0372 450505,https://www.giustizia.it/giustizia/it/dettaglio_scheda.page?s=MII173747,2024-09-12,Cremona
MII173764,AA20,Cuneo,,Casa circondariale,44.64319015,7.43645384,Via Roncata n.75 - 12100 Cuneo,+39 0171 449911,https://www.giustizia.it/giustizia/it/dettaglio_scheda.page?s=MII173764,2024-09-12,Cuneo
MII173784,FF64,Eboli,,Casa di reclusione,40.6175146,15.0569438,Via Castello n.10 - 84025 Eboli,+39 0828 620811,https://www.giustizia.it/giustizia/it/dettaglio_scheda.page?s=MII173784,2024-09-12,Eboli
MII173813,KK10,Enna,Luigi Bodenza,Casa circondariale,37.5667573,14.2807473,Via Palermo n.20 - 94100 Enna,+39 0935 5665111,https://www.giustizia.it/giustizia/it/dettaglio_scheda.page?s=MII173813,2024-09-12,Enna
MII173994,KK12,Favignana,Giuseppe Barraco,Casa di reclusione,37.9314505,12.3273647,Via Aurelio Padovani n.1 - 91023 Favignana,+39 0923 920200,https://www.giustizia.it/giustizia/it/dettaglio_scheda.page?s=MII173994,2024-09-12,Favignana
MII174501,EE16,Fermo,,Casa di reclusione,43.0922489,13.63876807,Viale XX Giugno n.1/3 - 63900 Fermo,+39 073 4624023,https://www.giustizia.it/giustizia/it/dettaglio_scheda.page?s=MII174501,2024-09-12,Fermo
MII174686,BB08,Ferrara,Costantino Satta,Casa circondariale,44.8423466,11.5822881,Via Arginone n.327 - 44122 Ferrara,+39 053 2250011,https://www.giustizia.it/giustizia/it/dettaglio_scheda.page?s=MII174686,2024-09-12,Ferrara
MII174720,DD27,Firenze Sollicciano,,Casa circondariale,43.76945125,11.17403045,Via Girolamo Minervini n 2/R - 50142 Firenze,+39 055 73721,https://www.giustizia.it/giustizia/it/dettaglio_scheda.page?s=MII174720,2024-09-12,Firenze
MII174825,DD49,Firenze Mario Gozzini,,Casa circondariale,43.7698712,11.2555757,Via Girolamo Minervini n.5 - 50142 Firenze,+39 055 755451,https://www.giustizia.it/giustizia/it/dettaglio_scheda.page?s=MII174825,2024-09-12,Firenze
MII176375,FF13,Foggia,,Casa circondariale,41.50281055,15.45289961,Via delle Casermette n.22 - 71100 Foggia,+39 0881 778156,https://www.giustizia.it/giustizia/it/dettaglio_scheda.page?s=MII176375,2024-09-12,Foggia
MII176403,BB09,Forl&igrave,,Casa circondariale,44.2226017,12.0409384,Via della Rocca n.4/6 - 47121 Forl&igrave,+39 0543 33208,https://www.giustizia.it/giustizia/it/dettaglio_scheda.page?s=MII176403,2024-09-12,Forli'
MII176414,AA05,Fossano,,Casa di reclusione,44.5493489,7.7250155,Via S.Giovanni Bosco n.48 - 12045 Fossano,+39 0172 635791,https://www.giustizia.it/giustizia/it/dettaglio_scheda.page?s=MII176414,2024-09-12,Fossano
MII176424,EE14,Fossombrone,,Casa di reclusione,43.68773585,12.8229332,Viale Leopardi n.2 - 61034 Fossombrone,+39 0721 715569,https://www.giustizia.it/giustizia/it/dettaglio_scheda.page?s=MII176424,2024-09-12,Fossombrone
MII176437,EE07,Frosinone,Giuseppe Pagliei,Casa circondariale,41.6419807,13.3469287,Via Cerreto n.55 - 03100 Frosinone,+39 0775 8011,https://www.giustizia.it/giustizia/it/dettaglio_scheda.page?s=MII176437,2024-09-12,Frosinone
MII176451,KK33,Gela,,Casa circondariale,37.0664363,14.2502445,C.da Balate SS 117 bis n. snc - 93012 Gela,+39 0933 908167,https://www.giustizia.it/giustizia/it/dettaglio_scheda.page?s=MII176451,2024-09-12,Gela
MII176703,AA45,Genova Pontedecimo,,Casa circondariale,44.49411925,8.90540935,Via Coni Zugna n.32 - 16100 Genova,+39 010 784320,https://www.giustizia.it/giustizia/it/dettaglio_scheda.page?s=MII176703,2024-09-12,Genova
MII176714,KK26,Giarre,,Casa circondariale,37.726857,15.187688,Via Foscolo n.67 - 95017 Giarre,+39 095 7794356,https://www.giustizia.it/giustizia/it/dettaglio_scheda.page?s=MII176714,2024-09-12,Giarre
MII176719,CC14,Gorizia,Angiolo Bigazzi,Casa circondariale,45.9441278,13.6252288,Via G. Barzellini n 8 - 34170 Gorizia,+39 0481 535028,https://www.giustizia.it/giustizia/it/dettaglio_scheda.page?s=MII176719,2024-09-12,Gorizia
MII176743,DD20,Grosseto,,Casa circondariale,42.7597261,11.1137389,Via A Saffi n.23 - 58100 Grosseto,+39 0564 22037,https://www.giustizia.it/giustizia/it/dettaglio_scheda.page?s=MII176743,2024-09-12,Grosseto
MII176749,AA06,Imperia,,Casa circondariale,43.8862958,8.0267106,Via Giacomo Agnesi n. 2 18100 Imperia,+39 0183 293551,https://www.giustizia.it/giustizia/it/dettaglio_scheda.page?s=MII176749,2024-09-12,Imperia
MII176759,FF19,Isernia,,Casa circondariale,41.600216,14.238217,Via Ponte San Leonardo n.5 - 86170 Isernia,+39 0865 3965,https://www.giustizia.it/giustizia/it/dettaglio_scheda.page?s=MII176759,2024-09-12,Isernia
MII176771,LL05,Isili,,Casa di reclusione,39.7404048,9.1085903,Localit&agraveSarcidano n.SN - 08033 Isili,+39 0782 802045,https://www.giustizia.it/giustizia/it/dettaglio_scheda.page?s=MII176771,2024-09-12,Isili
MII176781,AA27,Ivrea,,Casa circondariale,45.4673791,7.874797,Corso Vercelli n.165 - 10015 Ivrea,+39 0125 614311,https://www.giustizia.it/giustizia/it/dettaglio_scheda.page?s=MII176781,2024-09-12,Ivrea
MII176788,AA07,La Spezia,,Casa circondariale,44.107033,9.8282255,Piazza Falcone e Borsellino n.1 - 19125 La Spezia,+39 0187 503064,https://www.giustizia.it/giustizia/it/dettaglio_scheda.page?s=MII176788,2024-09-12,La spezia
MII177107,EE18,Lanciano,,Casa circondariale,42.2305316,14.3907794,C/da Villa Stanazzo n.212/A - 66034 Lanciano,+39 0872 716509,https://www.giustizia.it/giustizia/it/dettaglio_scheda.page?s=MII177107,2024-09-12,Lanciano
MII177118,LL06,Lanusei,San Daniele,Casa circondariale,39.8785705,9.5410772,Viale Europa n.10 - 08045 Lanusei,+39 0782 42920,https://www.giustizia.it/giustizia/it/dettaglio_scheda.page?s=MII177118,2024-09-12,Lanusei
MII177134,EE11,L'Aquila,,Casa circondariale,42.3489203,13.3979672,Via Amiternina Localit&agraveCostarelle di Preturo n.3 - 67100 L'Aquila,+39 0862 452020,https://www.giustizia.it/giustizia/it/dettaglio_scheda.page?s=MII177134,2024-09-12,L'aquila
MII177323,FF25,Larino,,Casa circondariale,41.8055672,14.9210984,Contrada Monte Arcano n.2 - 86035 Larino,+39 0874 822041,https://www.giustizia.it/giustizia/it/dettaglio_scheda.page?s=MII177323,2024-09-12,Larino
MII177332,EE23,Latina,,Casa circondariale,41.46083555,12.89935226,Via Aspromonte n.100 - 04100 Latina,+39 0773 41781,https://www.giustizia.it/giustizia/it/dettaglio_scheda.page?s=MII177332,2024-09-12,Latina
MII177346,HH43,Laureana di Borrello,Luigi Daga,Casa di reclusione,38.492577,16.082098,Viale Paolo Quattrone n.7 - 89023 Laureana di Borrello,+39 0966 901377,https://www.giustizia.it/giustizia/it/dettaglio_scheda.page?s=MII177346,2024-09-12,Laureana di borrello
MII177384,FF65,Lauro,,Istituto custodia attenuata per madri,40.8799681,14.629467,Strada Provinciale Bosagro n. snc - 83023 Lauro,+39 081 8240430/8240444,https://www.giustizia.it/giustizia/it/dettaglio_scheda.page?s=MII177384,2024-09-12,Lauro
MII177420,FF34,Lecce,Nuovo Complesso,Casa circondariale,40.3767969,18.156339,Via Paolo Perrone n.4 - 73100 Lecce,+39 0832/1669111,https://www.giustizia.it/giustizia/it/dettaglio_scheda.page?s=MII177420,2024-09-12,Lecce
MII177436,BB19,Lecco,,Casa circondariale,45.8553764,9.389605,Via Cesare Beccaria n.9 - 23900 Lecco,+39 0341 22821,https://www.giustizia.it/giustizia/it/dettaglio_scheda.page?s=MII177436,2024-09-12,Lecco
MII177463,DD08,Livorno,,Casa circondariale,43.5507411,10.3091456,Via delle Macchie n.9 - 57124 Livorno,+39 0586 853044,https://www.giustizia.it/giustizia/it/dettaglio_scheda.page?s=MII177463,2024-09-12,Livorno
MII177498,DD07,Livorno Gorgona,,Casa di reclusione,43.42959665,9.89870751,Gorgona Via Torre Nuova n.1 -. 57030 Livorno,+39 0586 495501,https://www.giustizia.it/giustizia/it/dettaglio_scheda.page?s=MII177498,2024-09-12,Livorno
MII177996,HH06,Locri,,Casa circondariale,38.2385368,16.2655092,Via Vittorio Veneto n.71 - 89044 Locri,+39 0964 20139,https://www.giustizia.it/giustizia/it/dettaglio_scheda.page?s=MII177996,2024-09-12,Locri
MII178003,LL07,Onan&igrave,Onan&igrave-Mamone,Casa di reclusione,40.5725948,9.4205999,Via Centrale n.3 - 08020 Onan&igrave(Nuoro),+39 0784 14524,https://www.giustizia.it/giustizia/it/dettaglio_scheda.page?s=MII178003,2024-09-12,Nuoro
MII178027,BB20,Lodi,,Casa circondariale,45.3138959,9.503263,Via Cagnola n.2 - 26900 Lodi,+39 0371 420214,https://www.giustizia.it/giustizia/it/dettaglio_scheda.page?s=MII178027,2024-09-12,Lodi
MII178035,DD09,Lucca,,Casa circondariale,43.84570065,10.49998221,Via San Giorgio n.108 - 55100 Lucca,+39 0583 419696,https://www.giustizia.it/giustizia/it/dettaglio_scheda.page?s=MII178035,2024-09-12,Lucca
MII178045,FF14,Lucera,,Casa circondariale,41.51140835,15.33357537,Piazza Tribunali n.16 - 71036 Lucera,+39 0881 521493,https://www.giustizia.it/giustizia/it/dettaglio_scheda.page?s=MII178045,2024-09-12,Lucera
MII178072,BB21,Mantova,,Casa circondariale,45.1566683,10.7917191,Via C. Poma n.3 - 46100 Mantova,+39 0376 328829,https://www.giustizia.it/giustizia/it/dettaglio_scheda.page?s=MII178072,2024-09-12,Mantova
MII178085,AA08,Massa,,Casa di reclusione,44.0231028,10.1371655,Via Pietro Pellegrini n.17 - 54100 Massa,+39 0585 790921,https://www.giustizia.it/giustizia/it/dettaglio_scheda.page?s=MII178085,2024-09-12,Massa carrara
MII178115,DD22,Massa Marittima,,Casa circondariale,43.0438048,10.9023227,Viale Martiri della Niccioleta n.148 - 58024 Massa Marittima,+39 0566 904187,https://www.giustizia.it/giustizia/it/dettaglio_scheda.page?s=MII178115,2024-09-12,Massa marittima
MII178124,HH14,Matera,,Casa circondariale,40.676213,16.60599858,Via Cererie n.24 - 75100 Matera,+39 0835 334751,https://www.giustizia.it/giustizia/it/dettaglio_scheda.page?s=MII178124,2024-09-12,Matera
MII178141,HH15,Melfi,,Casa circondariale,40.9961962,15.6556359,Via Lecce n. snc - 85025 Melfi,+39 0972 21822,https://www.giustizia.it/giustizia/it/dettaglio_scheda.page?s=MII178141,2024-09-12,Melfi
MII178148,HH01,Messina,,Casa circondariale,38.048433,15.00434682,Via Consolare Valeria n.2 - 98124 Messina,+39 090 2281111,https://www.giustizia.it/giustizia/it/dettaglio_scheda.page?s=MII178148,2024-09-12,Messina
MII178501,BB32,Milano San Vittore femminile,Francesco Di Cataldo,Casa circondariale,45.4615979,9.16639949,Piazza Filangieri n.2 - 20123 Milano,+39 02 438521,https://www.giustizia.it/giustizia/it/dettaglio_scheda.page?s=MII178501,2024-09-12,
MII178638,BB10,Modena,,Casa circondariale,44.67086,10.9190707,Strada Sant'Anna n.370 - 41122 Modena,+39 059 450800,https://www.giustizia.it/giustizia/it/dettaglio_scheda.page?s=MII178638,2024-09-12,Modena
MII178659,BB22,Monza,,Casa circondariale,45.5604241,9.28125258,Via Sanquirico n.6 - 20900 Monza,+39 039 839691,https://www.giustizia.it/giustizia/it/dettaglio_scheda.page?s=MII178659,2024-09-12,Monza
MII178666,FF01,Napoli Poggioreale,Giuseppe Salvia,Casa circondariale,40.8599808,14.27937499,Via Nuova Poggioreale n.167 - 80143 Napoli,+39 081 266666,https://www.giustizia.it/giustizia/it/dettaglio_scheda.page?s=MII178666,2024-09-12,Napoli
MII178672,FF58,Napoli Secondigliano,Pasquale Mandato,Casa circondariale,40.9104776,14.24587204,Via Roma verso Scampia n.350 - 80144 Napoli,+39 081 702 14 14,https://www.giustizia.it/giustizia/it/dettaglio_scheda.page?s=MII178672,2024-09-12,Napoli
MII178681,KK06,Noto,Attilio Bonincontro,Casa di reclusione,36.89341275,15.07208372,Via Garibaldi n.8 - 96017 Noto,+39 0931 571233,https://www.giustizia.it/giustizia/it/dettaglio_scheda.page?s=MII178681,2024-09-12,Noto
MII178700,AA19,Novara,,Casa circondariale,45.4353796,8.63788811,Via Sforzesca n.49 - 28100 Novara,+39 0321 4835,https://www.giustizia.it/giustizia/it/dettaglio_scheda.page?s=MII178700,2024-09-12,Novara
MII179224,LL08,Nuoro,,Casa circondariale,40.31421085,9.30414976,Via Badu e Carros n.1 - 08100 Nuoro,+39 0784 200126,https://www.giustizia.it/giustizia/it/dettaglio_scheda.page?s=MII179224,2024-09-12,Nuoro
MII179237,BB39,Opera,I&ordfcasa,Casa di reclusione,45.373069,9.211149,Via Camporgnago n.40 - 20090 Milano,+39 02 576841,https://www.giustizia.it/giustizia/it/dettaglio_scheda.page?s=MII179237,2024-09-12,Milano
MII179274,LL09,Oristano,Salvatore Soro,Casa di reclusione,39.94078795,8.61201176,Loc. Su Pedriaxiu Massama n. snc - 09170 Oristano,+39 0783 71031,https://www.giustizia.it/giustizia/it/dettaglio_scheda.page?s=MII179274,2024-09-12,Oristano
MII179280,DD14,Orvieto,,Casa di reclusione,42.72110485,12.11506423,Via Roma n.1 - 05018 Orvieto,+39 0763 340435,https://www.giustizia.it/giustizia/it/dettaglio_scheda.page?s=MII179280,2024-09-12,Orvieto
MII179290,CC18,Padova,,Casa circondariale,45.4451533,11.84137093,Via Due Palazzi n.25/A - 35136 Padova,+39 049 713788,https://www.giustizia.it/giustizia/it/dettaglio_scheda.page?s=MII179290,2024-09-12,Padova
MII179299,CC25,Padova Nuovo Complesso,,Casa di reclusione,45.4436499,11.84528382,Via Due Palazzi n.35 - 35135 Padova,+39 049 8908411,https://www.giustizia.it/giustizia/it/dettaglio_scheda.page?s=MII179299,2024-09-12,Padova
MII179306,KK23,Palermo Pagliarelli,Antonio Lorusso,Casa circondariale,38.09077025,13.33932043,Piazza Pietro Cerulli n.1 - 90129 Palermo,+39 091 6685456,https://www.giustizia.it/giustizia/it/dettaglio_scheda.page?s=MII179306,2024-09-12,Palermo
MII179324,KK01,Palermo Ucciardone,Calogero Di Bona,Casa di reclusione,38.13289445,13.35769614,Via Enrico Albanese n.3 - 90139 Palermo,+39 091 300431,https://www.giustizia.it/giustizia/it/dettaglio_scheda.page?s=MII179324,2024-09-12,Palermo
MII179331,EE22,Paliano,,Casa di reclusione,41.8060233,13.0580683,Viale Garibaldi n.6 - 03018 Paliano,+39 0775 578112,https://www.giustizia.it/giustizia/it/dettaglio_scheda.page?s=MII179331,2024-09-12,Paliano
MII179342,HH19,Palmi,Filippo Salsone,Casa circondariale,38.3673254,15.8589302,Via Trodio n.1 - 89015 Palmi,+39 0966 46741,https://www.giustizia.it/giustizia/it/dettaglio_scheda.page?s=MII179342,2024-09-12,Palmi
MII179353,HH20,Paola,,Casa circondariale,39.359893,16.039588,Via Paolino Maria Quattrone n.1 - 87027 Paola,+39 0982 848487,https://www.giustizia.it/giustizia/it/dettaglio_scheda.page?s=MII179353,2024-09-12,Paola
MII179364,BB30,Parma,,Casa di reclusione,44.8167494,10.36522212,Strada Burla n.57 - 43122 Parma,+39 0521 7089,https://www.giustizia.it/giustizia/it/dettaglio_scheda.page?s=MII179364,2024-09-12,Parma
MII179733,BB37,Voghera,Nuovo Complesso,Casa circondariale,44.9978954,8.9925217,Via Prati Nuovi n.7 - 27058 Voghera,+39 0383 212222,https://www.giustizia.it/giustizia/it/dettaglio_scheda.page?s=MII179733,2024-09-12,Pavia
MII179781,DD55,Perugia,Nuovo complesso penitenziario Capanne,Casa circondariale,43.05317525,12.26260324,Strada Pievaiola n.252 - 06132 Perugia,+39 075 7740001,https://www.giustizia.it/giustizia/it/dettaglio_scheda.page?s=MII179781,2024-09-12,Perugia
MII179818,EE24,Pesaro,,Casa circondariale,43.8735952,12.85524221,Strada Fontesecco n.88 - 61122 Pesaro,+39 0721 281986,https://www.giustizia.it/giustizia/it/dettaglio_scheda.page?s=MII179818,2024-09-12,Pesaro urbino
MII179830,EE05,Pescara,,Casa circondariale,42.4506322,14.215016,Via San Donato n.2- 65129 Pescara,+39 085 4310309 - 4326906 - 4312250 - 4310529 - 4313802 - 4310155,https://www.giustizia.it/giustizia/it/dettaglio_scheda.page?s=MII179830,2024-09-12,Pescara
MII179842,BB04,Piacenza,San Lazzaro,Casa circondariale,45.0534751,9.6947461,Via delle Novate n.65 - 29122 Piacenza,+39 0523 592384,https://www.giustizia.it/giustizia/it/dettaglio_scheda.page?s=MII179842,2024-09-12,Piacenza
MII179856,KK18,Piazza Armerina,,Casa circondariale,37.385946,14.367174,Via Fabrizio De Andr&eacuten.1 - 94015 Piazza Armerina,+39 0935 681385,https://www.giustizia.it/giustizia/it/dettaglio_scheda.page?s=MII179856,2024-09-12,Piazza armerina
MII179876,DD13,Volterra,,Casa di reclusione,43.400337,10.860019,Rampa di Castello n.4 - 56048 Volterra,+39 0588 89111,https://www.giustizia.it/giustizia/it/dettaglio_scheda.page?s=MII179876,2024-09-12,Volterra
MII179896,DD16,Pistoia,,Casa circondariale,43.93904125,10.91550517,Via dei Macelli n.13 - 51100 Pistoia,+39 0573 975111,https://www.giustizia.it/giustizia/it/dettaglio_scheda.page?s=MII179896,2024-09-12,Pistoia
MII179913,CC13,Pordenone,,Casa circondariale,45.9561032,12.66265692,Piazza della Motta n.10 - 33170 Pordenone,+39 0434 520148,https://www.giustizia.it/giustizia/it/dettaglio_scheda.page?s=MII179913,2024-09-12,Pordenone
MII179932,DD03,Porto Azzurro,Pasquale De Santis,Casa di reclusione,42.7655212,10.40289057,Forte San Giacomo n.1 57036 - Porto Azzurro,+39 0565 95045,https://www.giustizia.it/giustizia/it/dettaglio_scheda.page?s=MII179932,2024-09-12,Porto azzurro
MII179938,HH02,Potenza,Antonio Santoro,Casa circondariale,40.6413675,15.824158,Via Appia n.175 - 85100 Potenza,+39 0971 471017,https://www.giustizia.it/giustizia/it/dettaglio_scheda.page?s=MII179938,2024-09-12,Potenza
MII179945,FF56,Pozzuoli,,Casa circondariale femminile,40.82861375,14.1210843,Via Pergolesi n.140 - 80078 Pozzuoli,+39 081 5266640,https://www.giustizia.it/giustizia/it/dettaglio_scheda.page?s=MII179945,2024-09-12,Pozzuoli
MII179958,DD43,Prato,,Casa circondariale,43.9034549,11.0644075,Via La Montagnola n.76 - 50900 Prato,+39 0574 653201,https://www.giustizia.it/giustizia/it/dettaglio_scheda.page?s=MII179958,2024-09-12,Prato
MII179965,KK07,Ragusa,,Casa circondariale,36.9145799,14.72372512,Via G. di Vittorio n.26 - 97100 Ragusa,+ 39 0932 658601,https://www.giustizia.it/giustizia/it/dettaglio_scheda.page?s=MII179965,2024-09-12,Ragusa
MII179981,BB13,Ravenna,,Casa circondariale,44.41458045,12.19213791,Via Port'Aurea n.57 - 48121 Ravenna,+39 0544 36836 - 36885 - 36978,https://www.giustizia.it/giustizia/it/dettaglio_scheda.page?s=MII179981,2024-09-12,Ravenna
MII179988,HH44,Reggio Calabria Arghill&agrave,,Casa circondariale,38.1929515,15.681926617,Contrada Rugola n. snc - 89135 Reggio Calabria,+39 0965 670031,https://www.giustizia.it/giustizia/it/dettaglio_scheda.page?s=MII179988,2024-09-12,Reggio di calabria
MII179995,HH03,Reggio Calabria Giuseppe Panzera,,Casa circondariale,38.1035389,15.6397556,Via Carcere Nuovo n.15 89129 - Reggio Calabria,+39 0965 594891,https://www.giustizia.it/giustizia/it/dettaglio_scheda.page?s=MII179995,2024-09-12,Reggio di calabria
MII180001,BB15,Rimini,,Casa circondariale,44.0593886,12.5684371,Via Santa Cristina n.19 - 47900 Rimini,+39 0541 751306,https://www.giustizia.it/giustizia/it/dettaglio_scheda.page?s=MII180001,2024-09-12,Rimini
MII180348,EE28,Roma Rebibbia femminile,Germana Stefanini,Casa circondariale,41.93451235,12.57406556,Via Bartolo Longo n.92 - 00156 Roma,+39 06 415941,https://www.giustizia.it/giustizia/it/dettaglio_scheda.page?s=MII180348,2024-09-12,Roma
MII180356,EE39,Roma Rebibbia III&ordfcasa,,Casa circondariale,41.93451235,12.57406556,Via Bartolo Longo n.82 - 00156 Roma,+39 06 4122131,https://www.giustizia.it/giustizia/it/dettaglio_scheda.page?s=MII180356,2024-09-12,Roma
MII180370,EE01,Roma Rebibbia Nuovo Complesso,Raffaele Cinotti,Casa circondariale,41.93451235,12.57406556,Via Raffaele Majetti n.70 - 00156 Roma,+39 06 439801,https://www.giustizia.it/giustizia/it/dettaglio_scheda.page?s=MII180370,2024-09-12,Roma
MII180380,EE29,Roma Rebibbia,,Casa di reclusione,41.93451235,12.57406556,Via Bartolo Longo n.72 - 00156 Roma,+39 06 415201,https://www.giustizia.it/giustizia/it/dettaglio_scheda.page?s=MII180380,2024-09-12,Roma
MII180401,EE02,Roma Regina Coeli,,Casa circondariale,41.8952204,12.46386051,Via della Lungara n.29 - 00165 Roma,+39 06 680291,https://www.giustizia.it/giustizia/it/dettaglio_scheda.page?s=MII180401,2024-09-12,Roma
MII180415,HH41,Rossano,Nuovo Complesso,Casa di reclusione,39.5746821,16.6348647,Contrada Ciminata n. snc - 87067 Rossano,+39 0983 510555,https://www.giustizia.it/giustizia/it/dettaglio_scheda.page?s=MII180415,2024-09-12,Rossano
MII180424,CC31,Rovigo,,Casa circondariale,45.0843329,11.81300853,Strada regionale 443 Dir. n.2 - 45100 Rovigo,+39 0425 3693111,https://www.giustizia.it/giustizia/it/dettaglio_scheda.page?s=MII180424,2024-09-12,Rovigo
MII180426,FF11,Salerno,Antonio Caputo,Casa circondariale,40.6521175,14.85032945,Via del Tonnazzo n.1 - 84100 Salerno,+39 089 301722,https://www.giustizia.it/giustizia/it/dettaglio_scheda.page?s=MII180426,2024-09-12,Salerno
MII180437,AA03,Saluzzo,Rodolfo Morandi,Casa di reclusione,44.6446052,7.4926009,Regione Bronda n.19/B - 12037 Saluzzo,+39 0175 248125,https://www.giustizia.it/giustizia/it/dettaglio_scheda.page?s=MII180437,2024-09-12,Saluzzo
MII180451,KK22,San Cataldo,,Casa di reclusione,37.488445,13.993065,Piazza Marconi n.1 - 93017 San Cataldo,+39 0934 571113,https://www.giustizia.it/giustizia/it/dettaglio_scheda.page?s=MII180451,2024-09-12,San cataldo
MII180458,DD12,San Gimignano,,Casa di reclusione,43.4263361,11.02355054,Loc. Ciuciano Ranza n.20 - 53037 San Gimignano,+39 0577 942120,https://www.giustizia.it/giustizia/it/dettaglio_scheda.page?s=MII180458,2024-09-12,San gimignano
MII180465,AA16,Sanremo,Nuovo Complesso,Casa di reclusione,43.8198253,7.7748827,Strada Armea n.144/a - 18038 Sanremo,+39 0184 515040,https://www.giustizia.it/giustizia/it/dettaglio_scheda.page?s=MII180465,2024-09-12,Sanremo
MII180476,FF23,San Severo,,Casa circondariale,41.6893215,15.3708272,Via Emilio Dotoli n.1 - 71016 San Severo,+39 0882 373131,https://www.giustizia.it/giustizia/it/dettaglio_scheda.page?s=MII180476,2024-09-12,San severo
MII180487,FF04,Santa Maria Capua Vetere,Francesco Uccella,Casa circondariale,41.04325675,14.23503914,Strada Statale Appia 7 bis Km. 6+500 n. snc - 81055 Santa Maria Capua Vetere,+39 0823 846384,https://www.giustizia.it/giustizia/it/dettaglio_scheda.page?s=MII180487,2024-09-12,Santa maria capua vetere
MII181079,FF68,Sant'Angelo dei Lombardi,"Famiglietti, Forgetta, Bartolo",Casa di reclusione,40.9101396,15.1892849,C. da Selvatico n. SNC - 83054 Sant'Angelo dei Lombardi,+39 0827 24124,https://www.giustizia.it/giustizia/it/dettaglio_scheda.page?s=MII181079,2024-09-12,Sant'angelo dei lombardi
MII181091,LL10,Sassari,Giovanni Bacchiddu,Casa circondariale,40.72020106,8.55148315,Localit&agraveBancali - Strada Provinciale 56 n.4 - 07100 Sassari,+39 079 3090,https://www.giustizia.it/giustizia/it/dettaglio_scheda.page?s=MII181091,2024-09-12,Sassari
MII181109,KK13,Sciacca,,Casa circondariale,37.5064786,13.0823323,Via Pietro Gerardi n.12 - 92019 Sciacca,+39 0925 21380,https://www.giustizia.it/giustizia/it/dettaglio_scheda.page?s=MII181109,2024-09-12,Sciacca
MII181115,DD17,Siena,,Casa circondariale,43.31814595,11.33794054,Piazza Santo Spirito n.3 - 53100 Siena,+39 0577 41226,https://www.giustizia.it/giustizia/it/dettaglio_scheda.page?s=MII181115,2024-09-12,Siena
MII181125,KK08,Siracusa,,Casa circondariale,37.03487355,15.16261221,Via Monasteri n.20 - 96100 Siracusa,+39 0931 717206,https://www.giustizia.it/giustizia/it/dettaglio_scheda.page?s=MII181125,2024-09-12,Siracusa
MII181346,BB24,Sondrio,,Casa circondariale,46.32336235,10.25841367,Via Antonio Caimi n.80 - 23100 Sondrio,+39 034 2212031,https://www.giustizia.it/giustizia/it/dettaglio_scheda.page?s=MII181346,2024-09-12,Sondrio
MII181358,DD23,Spoleto,,Casa di reclusione,42.78113085,12.72710874,Localit&agraveMaiano n.10 - 06049 Spoleto,+39 0743 26311,https://www.giustizia.it/giustizia/it/dettaglio_scheda.page?s=MII181358,2024-09-12,Spoleto
MII181371,EE12,Sulmona,,Casa di reclusione,42.0685398,13.9279741,Via Lamaccio n. snc - 67039 Sulmona,+39 0864 210831,https://www.giustizia.it/giustizia/it/dettaglio_scheda.page?s=MII181371,2024-09-12,Sulmona
MII181377,FF17,Taranto,Carmelo Magli,Casa circondariale,40.45574895,17.29388354,Via Carmelo Magli n.1 - 74100 Taranto,+39 099 7798915,https://www.giustizia.it/giustizia/it/dettaglio_scheda.page?s=MII181377,2024-09-12,Taranto
MII181385,LL11,Tempio Pausania,Paolo Pittalis,Casa di reclusione,40.8973821,9.1035159,Localit&agraveNuchis n. snc - 07029 Tempio Pausania,+39 079 6727611,https://www.giustizia.it/giustizia/it/dettaglio_scheda.page?s=MII181385,2024-09-12,Tempio pausania
MII181392,EE13,Teramo,,Casa circondariale,42.6612893,13.6983524,C.da Ceppata n.1 - 64100 Teramo,+39 0861 414777,https://www.giustizia.it/giustizia/it/dettaglio_scheda.page?s=MII181392,2024-09-12,Teramo
MII181401,KK04,Termini Imerese,Antonino Burrafato,Casa circondariale,37.983651,13.695554,Via Zara n.28 - 90018 Termini Imerese,+39 091 8144760,https://www.giustizia.it/giustizia/it/dettaglio_scheda.page?s=MII181401,2024-09-12,Termini imerese
MII181407,DD18,Terni,,Casa circondariale,42.5545755,12.5982445,Strada delle Campore n.32 - 05100 Terni,+39 0744 800100,https://www.giustizia.it/giustizia/it/dettaglio_scheda.page?s=MII181407,2024-09-12,Terni
MII181417,CC26,Tolmezzo,,Casa circondariale,46.418570686533315,13.018053166820799,Via Paluzza n.77 - 33028 Tolmezzo,+39 0433 44900,https://www.giustizia.it/giustizia/it/dettaglio_scheda.page?s=MII181417,2024-09-12,Tolmezzo
MII181424,AA42,Torino,Lorusso Cutugno,Casa circondariale,45.1013372,7.6199624,VIa M. Aglietta n.35 - 10151 Torino,+39 011 4557585,https://www.giustizia.it/giustizia/it/dettaglio_scheda.page?s=MII181424,2024-09-12,Torino
MII181434,FF15,Trani,,Casa circondariale,41.275354,16.3959453,Via Andria n 300 - 76125 Trani,+39 0883 584848,https://www.giustizia.it/giustizia/it/dettaglio_scheda.page?s=MII181434,2024-09-12,Trani
MII181440,FF36,Trani femminile,,Casa di reclusione,41.275354,16.3959453,Piazza Plebiscito n.18 - 76125 Trani,+39 0883 481019,https://www.giustizia.it/giustizia/it/dettaglio_scheda.page?s=MII181440,2024-09-12,
MII181625,KK03,Trapani,Pietro Cerulli,Casa circondariale,38.0160543,12.5437475,Via Madonna di Fatima n.222 - 91016 Trapani,+39 0923 470111,https://www.giustizia.it/giustizia/it/dettaglio_scheda.page?s=MII181625,2024-09-12,Trapani
MII181636,CC30,Trento,Spini di Gardolo,Casa circondariale,46.1268099,11.09424056,Via Cesare Beccaria n.13 - 38121 Trento,+39 0461 969101,https://www.giustizia.it/giustizia/it/dettaglio_scheda.page?s=MII181636,2024-09-12,Trento
MII181645,CC07,Treviso,,Casa circondariale,45.67301695,12.23006239,Via Santa Bona Nuova n.5/B - 31100 Treviso,+39 0422 431167,https://www.giustizia.it/giustizia/it/dettaglio_scheda.page?s=MII181645,2024-09-12,Treviso
MII181661,CC02,Trieste,Ernesto Mari,Casa circondariale,45.6556788,13.78073313,Via Coroneo n. 26/28 - 34133 Trieste,+39 040 635044,https://www.giustizia.it/giustizia/it/dettaglio_scheda.page?s=MII181661,2024-09-12,Trieste
MII181672,CC10,Udine,Antonio Santoro,Casa circondariale,46.06711525,13.24805433,Via Spalato n. 30 - 33100 Udine,+39 0432 502211,https://www.giustizia.it/giustizia/it/dettaglio_scheda.page?s=MII181672,2024-09-12,Udine
MII181678,FF05,Bari,Francesco Rucci,Casa circondariale,41.1257843,16.8620293,Corso Alcide De Gasperi n.307 - 70124 Bari,+39 080 5024155,https://www.giustizia.it/giustizia/it/dettaglio_scheda.page?s=MII181678,2024-09-12,Bari
MII181681,FF16,Turi,,Casa di reclusione,40.91732385,17.01893088,Piazza Aldo Moro n.4 - 70010 Turi,+39 080 8915811,https://www.giustizia.it/giustizia/it/dettaglio_scheda.page?s=MII181681,2024-09-12,Turi
MII181691,FF24,Vallo della Lucania,,Casa circondariale,40.229704,15.26576,A.R. Passaro n.39 - 84078 Vallo della Lucania,+39 0974 4268,https://www.giustizia.it/giustizia/it/dettaglio_scheda.page?s=MII181691,2024-09-12,Vallo della lucania
MII181703,BB25,Varese,,Casa circondariale,45.8175359,8.8263438,Via Felicita Morandi n.5 - 21100 Varese,+39 0332 283708,https://www.giustizia.it/giustizia/it/dettaglio_scheda.page?s=MII181703,2024-09-12,Varese
MII181820,EE19,Vasto,,Casa di lavoro,42.29559582,14.44633484,Via Torre Sinello n.23 - 66054 Vasto,+39 0873 310901,https://www.giustizia.it/giustizia/it/dettaglio_scheda.page?s=MII181820,2024-09-12,Vasto
MII181839,EE20,Velletri,,Casa circondariale,41.61240705,12.73058684,Via Campoleone n.97 - 00049 Velletri,+39 06 961081,https://www.giustizia.it/giustizia/it/dettaglio_scheda.page?s=MII181839,2024-09-12,Velletri
MII181847,CC19,Venezia Giudecca,,Casa di reclusione femminile,45.42608215,12.31826224,S. Eufemia n.712 - 30133 Venezia,+39 041 5204033,https://www.giustizia.it/giustizia/it/dettaglio_scheda.page?s=MII181847,2024-09-12,Venezia
MII181863,CC16,Venezia Santa Maria Maggiore,,Casa circondariale,45.435422,12.31724323,Santa Croce n.324 - 30135 Venezia,+39 041 5204811,https://www.giustizia.it/giustizia/it/dettaglio_scheda.page?s=MII181863,2024-09-12,Venezia
MII181870,AA14,Verbania,,Casa circondariale,45.9221715,8.5516789,Via Giuseppe Castelli n.8 - 28922 Verbania,+39 0323 503843,https://www.giustizia.it/giustizia/it/dettaglio_scheda.page?s=MII181870,2024-09-12,Verbania
MII181880,AA13,Vercelli,,Casa circondariale,45.3063558,8.42909461,Strada Vicinale del Rollone n.19 - 13100 Vercelli,+39 0161 215124,https://www.giustizia.it/giustizia/it/dettaglio_scheda.page?s=MII181880,2024-09-12,Vercelli
MII181891,CC17,Verona,Montorio,Casa circondariale,45.44345285,11.04808194,Via San Michele n.15 - 37141 Verona,+39 045 8921066,https://www.giustizia.it/giustizia/it/dettaglio_scheda.page?s=MII181891,2024-09-12,Verona
MII181908,HH07,Vibo Valentia,Nuovo Complesso,Casa circondariale,38.677407,16.0924801,Contrada Cocari n. snc - 89900 Vibo Valentia,+39 0963 262122,https://www.giustizia.it/giustizia/it/dettaglio_scheda.page?s=MII181908,2024-09-12,Vibo valentia
MII181918,CC09,Vicenza,Filippo Del Papa,Casa circondariale,45.5518993,11.5780075,Via Basilio Dalla Scola n. 150 - 36100 Vicenza,+39 0444 513790,https://www.giustizia.it/giustizia/it/dettaglio_scheda.page?s=MII181918,2024-09-12,Vicenza
MII181924,BB26,Vigevano,,Casa di reclusione,45.3211074,8.8114587,Via Gravellona n.240 - 27029 Vigevano,+39 0381 325760,https://www.giustizia.it/giustizia/it/dettaglio_scheda.page?s=MII181924,2024-09-12,Vigevano
MII181934,EE09,Viterbo,,Casa circondariale N.C.,42.4525651,12.09423595,Strada SS. Salvatore n. 14/b - 01100 Viterbo,+39 0761 24401,https://www.giustizia.it/giustizia/it/dettaglio_scheda.page?s=MII181934,2024-09-12,Viterbo
MII182339,BB29,Reggio Emilia,casa circondariale e di reclusione,Istituti di pena,44.6639363,10.63973152,Via Settembrini n.8 - 42123 Reggio Emilia,+39 0522 331666,https://www.giustizia.it/giustizia/it/dettaglio_scheda.page?s=MII182339,2024-09-12,Reggio nell'emilia
MII182440,EE10,Avezzano,,Casa circondariale,42.0347963,13.4265048,Via San Francesco n.8 - 67051 Avezzano,+39 0863 45021,https://www.giustizia.it/giustizia/it/dettaglio_scheda.page?s=MII182440,2024-09-12,Avezzano
MII182910,BB23,Pavia,,Casa circondariale,45.2073703,9.17887325,Via Vigentina n.85 - 27100 Pavia,+39 0382 574701,https://www.giustizia.it/giustizia/it/dettaglio_scheda.page?s=MII182910,2024-09-12,Pavia
MII182919,DD02,Pisa,,Casa circondariale,43.71851375,10.41402939,Via S. Giovanni Bosco n.43 - 56127 Pisa,+39 050 574102,https://www.giustizia.it/giustizia/it/dettaglio_scheda.page?s=MII182919,2024-09-12,Pisa
